{
    "links": {
        "self": "http://www.neowsapp.com/rest/v1/neo/3394752?api_key=iIulBulltgU6a56xZRHN4H3l9WmuAYTsLGpBGhQ2"
    },
    "id": "3394752",
    "neo_reference_id": "3394752",
    "name": "(2007 VH189)",
    "designation": "2007 VH189",
    "nasa_jpl_url": "http://ssd.jpl.nasa.gov/sbdb.cgi?sstr=3394752",
    "absolute_magnitude_h": 23.2,
    "estimated_diameter": {
        "kilometers": {
            "estimated_diameter_min": 0.0608912622,
            "estimated_diameter_max": 0.1361570015
        },
        "meters": {
            "estimated_diameter_min": 60.8912622106,
            "estimated_diameter_max": 136.1570015386
        },
        "miles": {
            "estimated_diameter_min": 0.0378360645,
            "estimated_diameter_max": 0.0846040122
        },
        "feet": {
            "estimated_diameter_min": 199.7744887109,
            "estimated_diameter_max": 446.7093369279
        }
    },
    "is_potentially_hazardous_asteroid": false,
    "close_approach_data": [
        {
            "close_approach_date": "2007-10-27",
            "close_approach_date_full": "2007-Oct-27 02:37",
            "epoch_date_close_approach": 1193452620000,
            "relative_velocity": {
                "kilometers_per_second": "17.9766245928",
                "kilometers_per_hour": "64715.848534197",
                "miles_per_hour": "40211.911551707"
            },
            "miss_distance": {
                "astronomical": "0.073950633",
                "lunar": "28.766796237",
                "kilometers": "11062857.18195171",
                "miles": "6874140.694725198"
            },
            "orbiting_body": "Earth"
        }
    ],
    "orbital_data": {
        "orbit_id": "8",
        "orbit_determination_date": "2017-04-06 09:05:10",
        "first_observation_date": "2007-11-14",
        "last_observation_date": "2007-11-20",
        "data_arc_in_days": 6,
        "observations_used": 23,
        "orbit_uncertainty": "9",
        "minimum_orbit_intersection": ".00229479",
        "jupiter_tisserand_invariant": "2.973",
        "epoch_osculation": "2454421.5",
        "eccentricity": ".7214456017573839",
        "semi_major_axis": "2.602903701807658",
        "inclination": "5.868622063448018",
        "ascending_node_longitude": "75.52225799246526",
        "orbital_period": "1533.859492780946",
        "perihelion_distance": ".7250502743405098",
        "perihelion_argument": "250.1338099132319",
        "aphelion_distance": "4.480757129274806",
        "perihelion_time": "2454359.121873572153",
        "mean_anomaly": "14.64027547484881",
        "mean_motion": ".2347020712746682",
        "equinox": "J2000",
        "orbit_class": {
            "orbit_class_type": "APO",
            "orbit_class_description": "Near-Earth asteroid orbits which cross the Earth’s orbit similar to that of 1862 Apollo",
            "orbit_class_range": "a (semi-major axis) > 1.0 AU; q (perihelion) < 1.017 AU"
        }
    },
    "is_sentry_object": false
}